NORAD_CAT_ID,OBJECT_NAME,OBJECT_TYPE,EPOCH,MEAN_MOTION,ECCENTRICITY,INCLINATION,RA_OF_ASC_NODE,ARG_OF_PERICENTER,MEAN_ANOMALY,BSTAR,MEAN_MOTION_DOT,MEAN_MOTION_DDOT,TLE_LINE0,TLE_LINE1,TLE_LINE2,SEMIMAJOR_AXIS,PERIOD,APOGEE,PERIGEE,DECAYED
50178.0,STARLINK-3284,PAYLOAD,2023-12-31 18:56:55,15.08841976,0.0001514,53.2143,235.3801,85.6201,274.4964,0.00010709,1.417e-05,0.0,0 STARLINK-3284,1 50178U 21125Y   23365.78952593  .00001417  00000-0  10709-3 0  9992,2 50178  53.2143 235.3801 0001514  85.6201 274.4964 15.08841976115503,6917.874,95.437,540.787,538.692,0.0
50178.0,STARLINK-3284,PAYLOAD,2023-12-31 22:07:41,15.08840884,0.0001486,53.2143,234.7853,87.8527,272.2636,7.4723e-05,9.01e-06,0.0,0 STARLINK-3284,1 50178U 21125Y   23365.92200563  .00000901  00000-0  74723-4 0  9995,2 50178  53.2143 234.7853 0001486  87.8527 272.2636 15.08840884116056,6917.878,95.437,540.771,538.715,0.0
50178.0,STARLINK-3284,PAYLOAD,2024-01-01 01:18:27,15.0884207,0.000148,53.2143,234.19,90.8639,269.2522,8.558e-05,1.074e-05,0.0,0 STARLINK-3284,1 50178U 21125Y   24001.05448465  .00001074  00000-0  85580-4 0  9997,2 50178  53.2143 234.1900 0001480  90.8639 269.2522 15.08842070116076,6917.874,95.437,540.763,538.715,0.0
50178.0,STARLINK-3284,PAYLOAD,2024-01-01 20:23:05,15.08842327,0.0001545,53.216,230.6206,100.7487,259.3679,6.3829e-05,7.28e-06,0.0,0 STARLINK-3284,1 50178U 21125Y   24001.84936393  .00000728  00000-0  63829-4 0  9993,2 50178  53.2160 230.6206 0001545 100.7487 259.3679 15.08842327115661,6917.873,95.437,540.807,538.669,0.0
50178.0,STARLINK-3284,PAYLOAD,2024-01-01 21:58:28,15.08842479,0.0001509,53.2158,230.3233,97.4979,262.6185,6.1128e-05,6.85e-06,0.0,0 STARLINK-3284,1 50178U 21125Y   24001.91560381  .00000685  00000-0  61128-4 0  9993,2 50178  53.2158 230.3233 0001509  97.4979 262.6185 15.08842479116201,6917.873,95.437,540.782,538.694,0.0
50178.0,STARLINK-3284,PAYLOAD,2024-01-02 01:09:14,15.08842743,0.000152,53.2159,229.7285,98.9618,261.1547,5.8645e-05,6.46e-06,0.0,0 STARLINK-3284,1 50178U 21125Y   24002.04808326  .00000646  00000-0  58645-4 0  9999,2 50178  53.2159 229.7285 0001520  98.9618 261.1547 15.08842743116222,6917.872,95.437,540.789,538.685,0.0
50178.0,STARLINK-3284,PAYLOAD,2024-01-02 21:49:15,15.08840016,0.0001525,53.2164,225.8618,104.1947,255.9215,7.5331e-05,9.11e-06,0.0,0 STARLINK-3284,1 50178U 21125Y   24002.90920410  .00000911  00000-0  75331-4 0  9999,2 50178  53.2164 225.8618 0001525 104.1947 255.9215 15.08840016116353,6917.88,95.438,540.8,538.69,0.0
50178.0,STARLINK-3284,PAYLOAD,2024-01-03 20:04:39,15.08835503,0.000152,53.2164,221.6993,105.3147,254.8013,1.1945e-05,-9.8e-07,0.0,0 STARLINK-3284,1 50178U 21125Y   24003.83657009 -.00000098  00000-0  11945-4 0  9991,2 50178  53.2164 221.6993 0001520 105.3147 254.8013 15.08835503115968,6917.894,95.438,540.811,538.708,0.0
50178.0,STARLINK-3284,PAYLOAD,2024-01-03 21:40:02,15.0883547,0.000147,53.2163,221.402,101.6889,258.4268,7.193e-06,-1.73e-06,0.0,0 STARLINK-3284,1 50178U 21125Y   24003.90281063 -.00000173  00000-0  71930-5 0  9997,2 50178  53.2163 221.4020 0001470 101.6889 258.4268 15.08835470116508,6917.894,95.438,540.776,538.742,0.0
50178.0,STARLINK-3284,PAYLOAD,2024-01-04 19:55:26,15.08842305,0.0001427,53.216,217.2398,100.1608,259.9545,8.5989e-05,1.081e-05,0.0,0 STARLINK-3284,1 50178U 21125Y   24004.83016471  .00001081  00000-0  85989-4 0  9995,2 50178  53.2160 217.2398 0001427 100.1608 259.9545 15.08842305116117,6917.873,95.437,540.726,538.751,0.0
50178.0,STARLINK-3284,PAYLOAD,2024-01-04 21:30:49,15.08843196,0.0001392,53.216,216.941,92.1536,267.9615,8.9994e-05,1.145e-05,0.0,0 STARLINK-3284,1 50178U 21125Y   24004.89640422  .00001145  00000-0  89994-4 0  9991,2 50178  53.2160 216.9410 0001392  92.1536 267.9615 15.08843196116654,6917.871,95.437,540.699,538.773,0.0
50178.0,STARLINK-3284,PAYLOAD,2024-01-05 13:24:41,15.08837648,0.0001357,53.2156,213.9695,82.6112,277.5034,6.1238e-05,6.87e-06,0.0,0 STARLINK-3284,1 50178U 21125Y   24005.55881035  .00000687  00000-0  61238-4 0  9993,2 50178  53.2156 213.9695 0001357  82.6112 277.5034 15.08837648116226,6917.888,95.438,540.691,538.814,0.0
50178.0,STARLINK-3284,PAYLOAD,2024-01-05 21:21:36,15.08838492,0.0001417,53.2159,212.4817,82.591,277.5243,6.4292e-05,7.35e-06,0.0,0 STARLINK-3284,1 50178U 21125Y   24005.89001045  .00000735  00000-0  64292-4 0  9992,2 50178  53.2159 212.4817 0001417  82.5910 277.5243 15.08838492116805,6917.885,95.438,540.73,538.77,0.0
50178.0,STARLINK-3284,PAYLOAD,2024-01-06 19:37:00,15.08844253,0.0001597,53.2162,208.3191,76.2824,283.8346,6.2614e-05,7.09e-06,0.0,0 STARLINK-3284,1 50178U 21125Y   24006.81736728  .00000709  00000-0  62614-4 0  9995,2 50178  53.2162 208.3191 0001597  76.2824 283.8346 15.08844253116414,6917.867,95.437,540.837,538.628,0.0
50178.0,STARLINK-3284,PAYLOAD,2024-01-07 22:38:33,15.08841378,0.0001441,53.2156,203.263,86.837,273.2787,6.7751e-05,7.91e-06,0.0,0 STARLINK-3284,1 50178U 21125Y   24007.94344735  .00000791  00000-0  67751-4 0  9991,2 50178  53.2156 203.2630 0001441  86.8370 273.2787 15.08841378117115,6917.876,95.437,540.738,538.744,0.0
50178.0,STARLINK-3284,PAYLOAD,2024-01-08 19:18:34,15.08841077,0.0001521,53.2163,199.3966,100.4066,259.7098,2.2626e-05,7.2e-07,0.0,0 STARLINK-3284,1 50178U 21125Y   24008.80456780  .00000072  00000-0  22626-4 0  9995,2 50178  53.2163 199.3966 0001521 100.4066 259.7098 15.08841077117248,6917.877,95.437,540.794,538.69,0.0
50178.0,STARLINK-3284,PAYLOAD,2024-01-09 12:47:49,15.08839471,0.00015,53.2166,196.1243,101.2639,258.8522,5.641e-05,6.1e-06,0.0,0 STARLINK-3284,1 50178U 21125Y   24009.53320777  .00000610  00000-0  56410-4 0  9998,2 50178  53.2166 196.1243 0001500 101.2639 258.8522 15.08839471116826,6917.882,95.438,540.785,538.709,0.0
50178.0,STARLINK-3284,PAYLOAD,2024-01-09 22:20:07,15.08846526,0.0001523,53.2165,194.3407,100.3452,259.7712,0.00010917,1.45e-05,0.0,0 STARLINK-3284,1 50178U 21125Y   24009.93064134  .00001450  00000-0  10917-3 0  9998,2 50178  53.2165 194.3407 0001523 100.3452 259.7712 15.08846526117411,6917.86,95.437,540.779,538.672,0.0
50178.0,STARLINK-3284,PAYLOAD,2024-01-10 11:03:13,15.08835965,0.000162,53.217,191.9574,112.8996,247.2167,1.1421e-05,-1.06e-06,0.0,0 STARLINK-3284,1 50178U 21125Y   24010.46057106 -.00000106  00000-0  11421-4 0  9999,2 50178  53.2170 191.9574 0001620 112.8996 247.2167 15.08835965116964,6917.893,95.438,540.878,538.637,0.0
50178.0,STARLINK-3284,PAYLOAD,2024-01-10 19:00:08,15.08836671,0.0001462,53.2165,190.4738,105.7129,254.4024,3.2433e-05,2.28e-06,0.0,0 STARLINK-3284,1 50178U 21125Y   24010.79177055  .00000228  00000-0  32433-4 0  9991,2 50178  53.2165 190.4738 0001462 105.7129 254.4024 15.08836671117549,6917.891,95.438,540.767,538.744,0.0
50178.0,STARLINK-3284,PAYLOAD,2024-01-11 18:50:55,15.0884683,0.0001626,53.2163,186.0134,107.1013,253.0157,-8.9654e-06,-4.31e-06,0.0,0 STARLINK-3284,1 50178U 21125Y   24011.78536715 -.00000431  00000-0 -89654-5 0  9999,2 50178  53.2163 186.0134 0001626 107.1013 253.0157 15.08846830117166,6917.86,95.437,540.849,538.6,0.0
50178.0,STARLINK-3284,PAYLOAD,2024-01-11 20:26:18,15.0884806,0.0001579,53.2163,185.7161,106.4905,253.6261,-2.6668e-05,-7.13e-06,0.0,0 STARLINK-3284,1 50178U 21125Y   24011.85160657 -.00000713  00000-0 -26668-4 0  9993,2 50178  53.2163 185.7161 0001579 106.4905 253.6261 15.08848060117700,6917.856,95.437,540.813,538.628,0.0
50178.0,STARLINK-3284,PAYLOAD,2024-01-12 18:41:43,15.08831424,0.0001389,53.217,181.5552,96.8225,263.2925,3.3035e-05,2.38e-06,0.0,0 STARLINK-3284,1 50178U 21125Y   24012.77897993  .00000238  00000-0  33035-4 0  9991,2 50178  53.2170 181.5552 0001389  96.8225 263.2925 15.08831424117319,6917.907,95.438,540.732,538.811,0.0
50178.0,STARLINK-3284,PAYLOAD,2024-01-12 20:17:07,15.08831654,0.0001364,53.2164,181.2571,89.7625,270.3523,3.1457e-05,2.13e-06,0.0,0 STARLINK-3284,1 50178U 21125Y   24012.84522020  .00000213  00000-0  31457-4 0  9994,2 50178  53.2164 181.2571 0001364  89.7625 270.3523 15.08831654117855,6917.906,95.438,540.715,538.827,0.0
50178.0,STARLINK-3284,PAYLOAD,2024-01-13 10:35:35,15.08835969,0.0001219,53.2167,178.5764,111.2446,248.8677,5.8136e-05,6.37e-06,0.0,0 STARLINK-3284,1 50178U 21125Y   24013.44137745  .00000637  00000-0  58136-4 0  9990,2 50178  53.2167 178.5764 0001219 111.2446 248.8677 15.08835969117945,6917.893,95.438,540.601,538.914,0.0
50178.0,STARLINK-3284,PAYLOAD,2024-01-13 18:32:29,15.08849776,0.0001312,53.2164,177.0954,81.1822,278.9318,0.00011456,1.536e-05,0.0,0 STARLINK-3284,1 50178U 21125Y   24013.77256918  .00001536  00000-0  11456-3 0  9992,2 50178  53.2164 177.0954 0001312  81.1822 278.9318 15.08849776117468,6917.851,95.437,540.623,538.808,0.0
50178.0,STARLINK-3284,PAYLOAD,2024-01-14 10:26:21,15.08834513,0.0001636,53.2172,174.1249,60.3931,299.7224,0.0002189,3.197e-05,0.0,0 STARLINK-3284,1 50178U 21125Y   24014.43497644  .00003197  00000-0  21890-3 0  9997,2 50178  53.2172 174.1249 0001636  60.3931 299.7224 15.08834513117562,6917.897,95.438,540.894,538.63,0.0
50178.0,STARLINK-3284,PAYLOAD,2024-01-14 16:47:54,15.08840689,0.0001602,53.217,172.9347,68.3478,291.7685,0.00012094,1.637e-05,0.0,0 STARLINK-3284,1 50178U 21125Y   24014.69993645  .00001637  00000-0  12094-3 0  9990,2 50178  53.2170 172.9347 0001602  68.3478 291.7685 15.08840689118130,6917.878,95.438,540.852,538.635,0.0
50178.0,STARLINK-3284,PAYLOAD,2024-01-15 13:27:54,15.0885115,0.0001494,53.2164,169.068,74.1478,285.9678,-2.5868e-05,-7e-06,0.0,0 STARLINK-3284,1 50178U 21125Y   24015.56105169 -.00000700  00000-0 -25868-4 0  9999,2 50178  53.2164 169.0680 0001494  74.1478 285.9678 15.08851150118260,6917.846,95.437,540.745,538.678,0.0
50178.0,STARLINK-3284,PAYLOAD,2024-01-15 16:38:41,15.08848735,0.0001458,53.2165,168.4723,73.4605,286.6547,3.8895e-05,3.31e-06,0.0,0 STARLINK-3284,1 50178U 21125Y   24015.69353085  .00000331  00000-0  38895-4 0  9997,2 50178  53.2165 168.4723 0001458  73.4605 286.6547 15.08848735117757,6917.854,95.437,540.727,538.71,0.0
